CORVUS BC4              
1 43767U 18099K   26068.65923737  .00005714  00000+0  33980-3 0  9990
2 43767  97.4206 114.5457 0008046 356.5821   3.5354 15.11615710397368
STARLINK-5025           
1 53920U 22119AL  26068.88723651  .00000636  00000+0  58025-4 0  9994
2 53920  53.2172 313.3021 0001160  73.7672 286.3447 15.08837327191856
